{"spkid": "50655423", "covariance": {"epoch": "2458444.5", "elements": [{"label": "e", "name": "e", "sigma": 2.73882029282411e-08, "title": "eccentricity", "value": ".2962281447606498", "units": null}, {"label": "q", "sigma": 3.97555349582872e-08, "name": "q", "units": "au", "value": "1.021404462597876", "title": "perihelion distance"}, {"units": "TDB", "title": "time of perihelion passage", "value": "2458593.399184654713", "name": "tp", "sigma": 2.0917096304003e-05, "label": "tp"}, {"label": "node", "sigma": 2.58556843918314e-05, "name": "om", "value": "261.847688895466", "title": "longitude of the ascending node", "units": "deg"}, {"name": "w", "sigma": 3.56391212721894e-05, "units": "deg", "value": "216.1459925751323", "title": "argument of perihelion", "label": "peri"}, {"label": "i", "units": "deg", "title": "inclination", "value": "2.933493247754284", "name": "i", "sigma": 4.16415356943564e-06}], "data": [["7.50113659638516E-16", "-1.088663292295823E-15", "3.17805859826816E-13", "2.920574416335626E-15", "3.670338222450551E-13", "-4.68580269512032E-14"], ["-1.088663292295823E-15", "1.580502559819595E-15", "-4.625368460285219E-13", "-3.982169608480202E-15", "-5.341734836630462E-13", "6.777213070019726E-14"], ["3.17805859826816E-13", "-4.625368460285219E-13", "4.375249177909377E-10", "-5.561643541179711E-11", "5.18104386395163E-10", "-1.805347728373754E-11"], ["2.920574416335626E-15", "-3.982169608480202E-15", "-5.561643541179711E-11", "6.685164153699964E-10", "-7.232192671847901E-10", "5.015394815878702E-11"], ["3.670338222450551E-13", "-5.341734836630462E-13", "5.18104386395163E-10", "-7.232192671847901E-10", "1.270146965053826E-9", "-7.152790371109999E-11"], ["-4.68580269512032E-14", "6.777213070019726E-14", "-1.805347728373754E-11", "5.015394815878702E-11", "-7.152790371109999E-11", "1.734017494984362E-11"]], "labels": ["e", "q", "tp", "node", "peri", "i"]}, "elements": [{"units": null, "title": "eccentricity", "value": ".2960308459376388", "name": "e", "sigma": "2.6366E-8", "label": "e"}, {"units": "au", "title": "semi-major axis", "value": "1.450743129576358", "sigma": "3.5157E-9", "name": "a", "label": "a"}, {"value": "1.021278413689651", "title": "perihelion distance", "units": "au", "sigma": "4.0089E-8", "name": "q", "label": "q"}, {"label": "i", "value": "2.915561679038439", "title": "inclination; angle with respect to x-y ecliptic plane", "units": "deg", "sigma": "4.1696E-6", "name": "i"}, {"sigma": "2.6274E-5", "name": "om", "units": "deg", "title": "longitude of the ascending node", "value": "261.4585638442175", "label": "node"}, {"title": "argument of perihelion", "value": "216.7829154178286", "units": "deg", "sigma": "3.6216E-5", "name": "w", "label": "peri"}, {"units": "deg", "value": "30.11570553614548", "title": "mean anomaly", "sigma": "1.0858E-5", "name": "ma", "label": "M"}, {"label": "tp", "sigma": "1.926E-5", "name": "tp", "units": "TDB", "value": "2461147.108176709892", "title": "time of perihelion passage"}, {"label": "period", "name": "per", "sigma": "2.3201E-6", "value": "638.2402816819072", "title": "sidereal orbital period", "units": "d"}, {"sigma": "2.0504E-9", "name": "n", "title": "mean motion", "value": ".5640508916975888", "units": "deg/d", "label": "n"}, {"sigma": "4.5565E-9", "name": "ad", "units": "au", "value": "1.880207845463065", "title": "aphelion distance", "label": "Q"}], "epoch": "2461200.5"}